{
  "type": "FeatureCollection",
  "features": [
    {
      "type": "Feature",
      "properties": {
        "norad_id": 66829,
        "name": "STARLINK-36084",
        "group": "last-30-days",
        "lat": 8.88977763884093,
        "lon": -176.50293764156788,
        "alt_km": 407.3450656394707,
        "timestamp": "2025-12-19T08:58:48.083556+00:00",
        "meta_object_name": "STARLINK-36084",
        "meta_object_id": "2025-280J",
        "meta_epoch": "2025-12-18T22:00:00.999936",
        "meta_mean_motion": 15.55797848,
        "meta_eccentricity": 0.0003615,
        "meta_inclination": 69.9996,
        "meta_ra_of_asc_node": 181.4878,
        "meta_arg_of_pericenter": 268.5852,
        "meta_mean_anomaly": 61.0707,
        "meta_ephemeris_type": 0,
        "meta_classification_type": "U",
        "meta_norad_cat_id": 66829,
        "meta_element_set_no": 999,
        "meta_rev_at_epoch": 373,
        "meta_bstar": -0.033066654,
        "meta_mean_motion_dot": -0.02047817,
        "meta_mean_motion_ddot": 0,
        "tle_line1": "1 66829U 25280J   25352.91667824 -.02047817  00000+0 -33067-1 0  9998",
        "tle_line2": "2 66829  69.9996 181.4878 0003615 268.5852  61.0707 15.55797848  3732"
      },
      "geometry": {
        "type": "Point",
        "coordinates": [
          -176.50293764156788,
          8.88977763884093
        ]
      }
    },
    {
      "type": "Feature",
      "properties": {
        "norad_id": 66830,
        "name": "STARLINK-35881",
        "group": "last-30-days",
        "lat": 12.489473996591228,
        "lon": -175.14628150818572,
        "alt_km": 407.024361920463,
        "timestamp": "2025-12-19T08:58:48.083566+00:00",
        "meta_object_name": "STARLINK-35881",
        "meta_object_id": "2025-280K",
        "meta_epoch": "2025-12-18T22:00:00.999936",
        "meta_mean_motion": 15.55798862,
        "meta_eccentricity": 0.00038038,
        "meta_inclination": 69.9994,
        "meta_ra_of_asc_node": 181.4828,
        "meta_arg_of_pericenter": 267.4312,
        "meta_mean_anomaly": 66.0541,
        "meta_ephemeris_type": 0,
        "meta_classification_type": "U",
        "meta_norad_cat_id": 66830,
        "meta_element_set_no": 999,
        "meta_rev_at_epoch": 389,
        "meta_bstar": -0.032953201,
        "meta_mean_motion_dot": -0.02004137,
        "meta_mean_motion_ddot": 0,
        "tle_line1": "1 66830U 25280K   25352.91667824 -.02004137  00000+0 -32953-1 0  9991",
        "tle_line2": "2 66830  69.9994 181.4828 0003803 267.4312  66.0541 15.55798862  3890"
      },
      "geometry": {
        "type": "Point",
        "coordinates": [
          -175.14628150818572,
          12.489473996591228
        ]
      }
    },
    {
      "type": "Feature",
      "properties": {
        "norad_id": 66831,
        "name": "STARLINK-35788",
        "group": "last-30-days",
        "lat": 14.267318433738463,
        "lon": -174.4606612811427,
        "alt_km": 406.79365107856484,
        "timestamp": "2025-12-19T08:58:48.083575+00:00",
        "meta_object_name": "STARLINK-35788",
        "meta_object_id": "2025-280L",
        "meta_epoch": "2025-12-18T22:00:00.999936",
        "meta_mean_motion": 15.55825002,
        "meta_eccentricity": 0.00034422,
        "meta_inclination": 69.9996,
        "meta_ra_of_asc_node": 181.4816,
        "meta_arg_of_pericenter": 268.9588,
        "meta_mean_anomaly": 66.4396,
        "meta_ephemeris_type": 0,
        "meta_classification_type": "U",
        "meta_norad_cat_id": 66831,
        "meta_element_set_no": 999,
        "meta_rev_at_epoch": 389,
        "meta_bstar": -0.034008134,
        "meta_mean_motion_dot": -0.02101543,
        "meta_mean_motion_ddot": 0,
        "tle_line1": "1 66831U 25280L   25352.91667824 -.02101543  00000+0 -34008-1 0  9994",
        "tle_line2": "2 66831  69.9996 181.4816 0003442 268.9588  66.4396 15.55825002  3899"
      },
      "geometry": {
        "type": "Point",
        "coordinates": [
          -174.4606612811427,
          14.267318433738463
        ]
      }
    },
    {
      "type": "Feature",
      "properties": {
        "norad_id": 66832,
        "name": "STARLINK-35768",
        "group": "last-30-days",
        "lat": 16.059164052847738,
        "lon": -173.7590457043461,
        "alt_km": 406.5105038342799,
        "timestamp": "2025-12-19T08:58:48.083585+00:00",
        "meta_object_name": "STARLINK-35768",
        "meta_object_id": "2025-280M",
        "meta_epoch": "2025-12-18T22:00:00.999936",
        "meta_mean_motion": 15.55826014,
        "meta_eccentricity": 0.00034712,
        "meta_inclination": 69.9992,
        "meta_ra_of_asc_node": 181.479,
        "meta_arg_of_pericenter": 270.9498,
        "meta_mean_anomaly": 66.3621,
        "meta_ephemeris_type": 0,
        "meta_classification_type": "U",
        "meta_norad_cat_id": 66832,
        "meta_element_set_no": 999,
        "meta_rev_at_epoch": 389,
        "meta_bstar": -0.034018631,
        "meta_mean_motion_dot": -0.02102217,
        "meta_mean_motion_ddot": 0,
        "tle_line1": "1 66832U 25280M   25352.91667824 -.02102217  00000+0 -34019-1 0  9996",
        "tle_line2": "2 66832  69.9992 181.4790 0003471 270.9498  66.3621 15.55826014  3896"
      },
      "geometry": {
        "type": "Point",
        "coordinates": [
          -173.7590457043461,
          16.059164052847738
        ]
      }
    },
    {
      "type": "Feature",
      "properties": {
        "norad_id": 66833,
        "name": "STARLINK-35858",
        "group": "last-30-days",
        "lat": 17.847043577087806,
        "lon": -173.04423279364164,
        "alt_km": 406.2180220111877,
        "timestamp": "2025-12-19T08:58:48.083597+00:00",
        "meta_object_name": "STARLINK-35858",
        "meta_object_id": "2025-280N",
        "meta_epoch": "2025-12-18T22:00:00.999936",
        "meta_mean_motion": 15.55830387,
        "meta_eccentricity": 0.0003738,
        "meta_inclination": 69.9997,
        "meta_ra_of_asc_node": 181.4777,
        "meta_arg_of_pericenter": 275.0728,
        "meta_mean_anomaly": 64.1569,
        "meta_ephemeris_type": 0,
        "meta_classification_type": "U",
        "meta_norad_cat_id": 66833,
        "meta_element_set_no": 999,
        "meta_rev_at_epoch": 389,
        "meta_bstar": -0.034323216,
        "meta_mean_motion_dot": -0.02119512,
        "meta_mean_motion_ddot": 0,
        "tle_line1": "1 66833U 25280N   25352.91667824 -.02119512  00000+0 -34323-1 0  9991",
        "tle_line2": "2 66833  69.9997 181.4777 0003738 275.0728  64.1569 15.55830387  3890"
      },
      "geometry": {
        "type": "Point",
        "coordinates": [
          -173.04423279364164,
          17.847043577087806
        ]
      }
    },
    {
      "type": "Feature",
      "properties": {
        "norad_id": 66834,
        "name": "STARLINK-35840",
        "group": "last-30-days",
        "lat": 19.63568375183663,
        "lon": -172.31485075231373,
        "alt_km": 406.10588114447546,
        "timestamp": "2025-12-19T08:58:48.083607+00:00",
        "meta_object_name": "STARLINK-35840",
        "meta_object_id": "2025-280P",
        "meta_epoch": "2025-12-18T22:00:00.999936",
        "meta_mean_motion": 15.55831398,
        "meta_eccentricity": 0.00037595,
        "meta_inclination": 69.9997,
        "meta_ra_of_asc_node": 181.4749,
        "meta_arg_of_pericenter": 272.835,
        "meta_mean_anomaly": 68.3083,
        "meta_ephemeris_type": 0,
        "meta_classification_type": "U",
        "meta_norad_cat_id": 66834,
        "meta_element_set_no": 999,
        "meta_rev_at_epoch": 389,
        "meta_bstar": -0.034280654,
        "meta_mean_motion_dot": -0.02117262,
        "meta_mean_motion_ddot": 0,
        "tle_line1": "1 66834U 25280P   25352.91667824 -.02117262  00000+0 -34281-1 0  9995",
        "tle_line2": "2 66834  69.9997 181.4749 0003759 272.8350  68.3083 15.55831398  3899"
      },
      "geometry": {
        "type": "Point",
        "coordinates": [
          -172.31485075231373,
          19.63568375183663
        ]
      }
    },
    {
      "type": "Feature",
      "properties": {
        "norad_id": 66835,
        "name": "STARLINK-35890",
        "group": "last-30-days",
        "lat": 21.438373901467013,
        "lon": -171.56264585557892,
        "alt_km": 405.9629886881039,
        "timestamp": "2025-12-19T08:58:48.083617+00:00",
        "meta_object_name": "STARLINK-35890",
        "meta_object_id": "2025-280Q",
        "meta_epoch": "2025-12-18T22:00:00.999936",
        "meta_mean_motion": 15.55802571,
        "meta_eccentricity": 0.00036795,
        "meta_inclination": 69.9997,
        "meta_ra_of_asc_node": 181.4712,
        "meta_arg_of_pericenter": 267.7913,
        "meta_mean_anomaly": 75.2759,
        "meta_ephemeris_type": 0,
        "meta_classification_type": "U",
        "meta_norad_cat_id": 66835,
        "meta_element_set_no": 999,
        "meta_rev_at_epoch": 389,
        "meta_bstar": -0.033084838,
        "meta_mean_motion_dot": -0.02049199,
        "meta_mean_motion_ddot": 0,
        "tle_line1": "1 66835U 25280Q   25352.91667824 -.02049199  00000+0 -33085-1 0  9990",
        "tle_line2": "2 66835  69.9997 181.4712 0003679 267.7913  75.2759 15.55802571  3897"
      },
      "geometry": {
        "type": "Point",
        "coordinates": [
          -171.56264585557892,
          21.438373901467013
        ]
      }
    }
  ]
}